{
"type": "FeatureCollection",
"name": "linje",
"crs": { "type": "name", "properties": { "name": "urn:ogc:def:crs:EPSG::25833" } },
"features": [
{ "type": "Feature", "properties": { "popup_kort": "strandryddedagen 2026 sti", "popup_lang": null, "type": "strandrydd_2026" }, "geometry": { "type": "LineString", "coordinates": [ [ 271563.742569171707146, 7042430.304018249735236 ], [ 271574.566796058497857, 7042419.780464331619442 ], [ 271585.691695914370939, 7042429.101326373405755 ], [ 271617.863703605660703, 7042452.253144992515445 ], [ 271627.485238616121933, 7042454.658528745174408 ], [ 271641.015522224653978, 7042446.540358579717577 ], [ 271662.363303029094823, 7042446.841031548567116 ], [ 271745.048369525407907, 7042448.34439639467746 ], [ 271745.349042494490277, 7042494.347360663115978 ], [ 271745.048369525407907, 7042523.813311632722616 ], [ 271808.215566027793102, 7042544.137113699689507 ], [ 271819.552733717369847, 7042551.553952375426888 ], [ 271775.174791666097008, 7042600.29250277671963 ], [ 271764.291439546388574, 7042613.413856417872012 ], [ 271793.290850921941455, 7042649.201627266593277 ], [ 271817.196907144389115, 7042637.131890678778291 ], [ 271798.567102615663316, 7042651.419409941881895 ], [ 271857.099667249363847, 7042720.235906931571662 ], [ 271881.881901690445375, 7042759.648617126978934 ], [ 271859.488316352129914, 7042775.771998571231961 ], [ 271833.810338497511111, 7042791.895380014553666 ], [ 271881.502495526801795, 7042859.717974505387247 ], [ 271874.688919383275788, 7042859.625899151898921 ], [ 271863.553230974997859, 7042844.387404192239046 ], [ 271828.215264183352701, 7042796.548283031210303 ], [ 271816.194051364727784, 7042781.743621327914298 ], [ 271818.284119329648092, 7042773.980511743575335 ], [ 271780.017366117157508, 7042717.489745249040425 ], [ 271742.744938117393758, 7042662.308417049236596 ], [ 271724.059500847186428, 7042637.377405762672424 ], [ 271755.271250474033877, 7042606.799051098525524 ], [ 271755.271250474033877, 7042606.799051098525524 ], [ 271717.085783401213121, 7042562.299451674334705 ], [ 271676.795605544815771, 7042515.093795529566705 ], [ 271666.27205162710743, 7042515.394468498416245 ], [ 271642.685487534967251, 7042484.630035988986492 ], [ 271607.941495626117103, 7042452.253144992515445 ], [ 271547.55813140393002, 7042453.388948551379144 ], [ 271529.630799360980745, 7042452.791864837519825 ] ] } }
]
}
