{
"type": "FeatureCollection",
"name": "omraade",
"crs": { "type": "name", "properties": { "name": "urn:ogc:def:crs:EPSG::25833" } },
"features": [
{ "type": "Feature", "properties": { "gruppe": "Gul", "popup_kort": "Gul", "popup_lang": "Lademoen vest", "type": "lamo_rydd", "farge": "#FFFF00", "linje_farge": "#888888" }, "geometry": { "type": "Polygon", "coordinates": [ [ [ 271485.29956390557345, 7042487.804992444813251 ], [ 271494.021049724600744, 7042489.549289608374238 ], [ 271501.573259650380351, 7042490.857407913543284 ], [ 271575.984115613042377, 7042490.223535213619471 ], [ 271640.175126508693211, 7042491.348812070675194 ], [ 271708.296296598680783, 7042499.707237849012017 ], [ 271740.894157132541295, 7042507.647742337547243 ], [ 271843.326010020740796, 7042540.720424636267126 ], [ 271843.329703687457368, 7042540.714614399708807 ], [ 271836.615482388471719, 7042537.866419889964163 ], [ 271883.129320685751736, 7042478.108747006393969 ], [ 271884.556041429925244, 7042476.358947747386992 ], [ 271884.973620055883657, 7042475.862744645215571 ], [ 271807.591436055256054, 7042416.103005619719625 ], [ 271798.754632876778487, 7042394.181598896160722 ], [ 271799.787134792131837, 7042368.893847870640457 ], [ 271781.685605774400756, 7042367.453953517600894 ], [ 271635.160071041958872, 7042358.03192091267556 ], [ 271531.51559139584424, 7042346.748046113178134 ], [ 271506.858235350984614, 7042355.106471890583634 ], [ 271500.417865122668445, 7042357.336609667167068 ], [ 271495.254258618806489, 7042367.942936539649963 ], [ 271492.463119968015235, 7042380.782174333930016 ], [ 271492.044449170411099, 7042386.504008567892015 ], [ 271479.485240026202518, 7042438.964671857655048 ], [ 271471.110909289738629, 7042452.374880725517869 ], [ 271453.945406587561592, 7042470.238168089650571 ], [ 271450.316926341562066, 7042487.822341589257121 ], [ 271469.575783031817991, 7042487.822341589257121 ], [ 271485.29956390557345, 7042487.804992444813251 ] ] ] } },
{ "type": "Feature", "properties": { "gruppe": "Rød", "popup_kort": "Rød", "popup_lang": "Lademoen øst", "type": "lamo_rydd", "farge": "#FF0000", "linje_farge": "#888888" }, "geometry": { "type": "Polygon", "coordinates": [ [ [ 271843.329703687457368, 7042540.714614399708807 ], [ 271868.637390906282235, 7042551.450217616744339 ], [ 271932.09704964607954, 7042584.825566092506051 ], [ 272042.724229083221871, 7042645.365949624218047 ], [ 272187.856766570592299, 7042704.242736815474927 ], [ 272193.480511775182094, 7042706.261938157491386 ], [ 272192.421196641982533, 7042699.139407964423299 ], [ 272190.922015886870213, 7042689.682802563533187 ], [ 272186.926296154386364, 7042670.932252127677202 ], [ 272157.162941773945931, 7042606.444984303787351 ], [ 272076.945222871843725, 7042544.289533233270049 ], [ 272064.31431744369911, 7042526.537990469485521 ], [ 272063.972154384013265, 7042526.257504871115088 ], [ 272063.914875748218037, 7042525.976612951606512 ], [ 272055.356533405487426, 7042513.948672361671925 ], [ 272070.714101987541653, 7042386.86837719194591 ], [ 272070.781664833775721, 7042386.309310410171747 ], [ 271799.811309343145695, 7042368.704002039507031 ], [ 271799.787134792131837, 7042368.893847870640457 ], [ 271798.754632876778487, 7042394.181598896160722 ], [ 271807.591436055256054, 7042416.103005619719625 ], [ 271884.973620055883657, 7042475.862744645215571 ], [ 271884.556041429925244, 7042476.358947747386992 ], [ 271883.129320685751736, 7042478.108747006393969 ], [ 271836.615482388471719, 7042537.866419889964163 ], [ 271843.329703687457368, 7042540.714614399708807 ] ] ] } },
{ "type": "Feature", "properties": { "gruppe": "Grønn", "popup_kort": "Grønn", "popup_lang": "Svartlamon", "type": "lamo_rydd", "farge": "#00FF00", "linje_farge": "#888888" }, "geometry": { "type": "Polygon", "coordinates": [ [ [ 271576.584448811598122, 7042500.305788786150515 ], [ 271648.177706504357047, 7042502.209691653959453 ], [ 271705.582163860846777, 7042507.251975070685148 ], [ 271764.1502250827034, 7042521.60308940988034 ], [ 271835.905796778330114, 7042544.487298761494458 ], [ 271895.249593910411932, 7042572.413791528902948 ], [ 271972.435316977615003, 7042615.85500250197947 ], [ 272020.304275991627946, 7042643.192959923297167 ], [ 272040.428638872748706, 7042653.527092213742435 ], [ 272042.604245670721866, 7042650.535632866434753 ], [ 272045.867655867652502, 7042651.62343626562506 ], [ 272043.420098219939973, 7042658.150256659835577 ], [ 272046.955459266609978, 7042659.510010908357799 ], [ 272040.156688023009337, 7042665.492929602973163 ], [ 272028.734752333723009, 7042676.099012742750347 ], [ 272014.321357297245413, 7042661.68561770580709 ], [ 272002.070985365193337, 7042673.204728601500392 ], [ 271990.389682519657072, 7042684.17084963992238 ], [ 272004.931712592660915, 7042700.143243326805532 ], [ 271985.145015935937408, 7042717.5460006268695 ], [ 271978.708379674062598, 7042725.413000502623618 ], [ 271958.921683017339092, 7042737.809485155157745 ], [ 271928.183441906759981, 7042754.9787777075544 ], [ 271907.622097281331662, 7042767.315584482625127 ], [ 271898.369492199853994, 7042779.138357643038034 ], [ 271923.043105750402901, 7042816.148777968250215 ], [ 271939.969147894764319, 7042846.373639720492065 ], [ 271922.529072134755552, 7042856.243399986065924 ], [ 271917.106267771625426, 7042857.340387096628547 ], [ 271912.851919798471499, 7042859.002010314725339 ], [ 271908.522683069575578, 7042862.850220740772784 ], [ 271900.104722763353493, 7042867.660483772866428 ], [ 271932.809744447469711, 7042917.413400246761739 ], [ 271969.306131157616619, 7042977.041299660690129 ], [ 271922.015038519108202, 7042995.54650982376188 ], [ 271867.013441646005958, 7042859.84163529612124 ], [ 271809.955710310430732, 7042782.22255933471024 ], [ 271818.568533485289663, 7042748.487101203761995 ], [ 271776.949867601389997, 7042683.344026691280305 ], [ 271752.902054384467192, 7042648.823778686113656 ], [ 271737.387336180021521, 7042632.533324571326375 ], [ 271731.908397147199139, 7042625.868019014596939 ], [ 271704.898459866526537, 7042613.248622088693082 ], [ 271694.050206368556246, 7042612.36305037420243 ], [ 271707.776567937398795, 7042593.544651448726654 ], [ 271732.345052763528656, 7042616.630738412030041 ], [ 271743.205355506681371, 7042606.546171579509974 ], [ 271680.370746778615285, 7042541.384355120360851 ], [ 271661.764293644344434, 7042531.121705346740782 ], [ 271623.742025332292542, 7042520.827353499829769 ], [ 271592.324720968259498, 7042512.294258487410843 ], [ 271576.584448811598122, 7042500.305788786150515 ] ] ] } },
{ "type": "Feature", "properties": { "gruppe": "Blå", "popup_kort": "Blå", "popup_lang": "Trikkestallen/Voldsminde", "type": "lamo_rydd", "farge": "#0000FF", "linje_farge": "#888888" }, "geometry": { "type": "Polygon", "coordinates": [ [ [ 272157.162941773945931, 7042606.444984303787351 ], [ 272165.050415018456988, 7042612.556470194831491 ], [ 272184.233143250225112, 7042634.115119473077357 ], [ 272203.178204278461635, 7042686.800766970030963 ], [ 272207.014574797416572, 7042705.26448658760637 ], [ 272202.316123397962656, 7042702.987687340006232 ], [ 272192.421196641982533, 7042699.139407964423299 ], [ 272193.480511775182094, 7042706.261938157491386 ], [ 272262.031919548462611, 7042727.94628472533077 ], [ 272325.944803751597647, 7042742.910861784592271 ], [ 272380.631743129517417, 7042564.038787042722106 ], [ 272416.356369619723409, 7042452.559728715568781 ], [ 272436.895818910270464, 7042402.066915876232088 ], [ 272360.168883882754017, 7042393.867645693011582 ], [ 272200.692152069474105, 7042389.657665262930095 ], [ 272187.427091069344897, 7042390.513475649990141 ], [ 272172.878314488567412, 7042393.08090681117028 ], [ 272070.714101987541653, 7042386.86837719194591 ], [ 272055.356533405487426, 7042513.948672361671925 ], [ 272063.914875748218037, 7042525.976612951606512 ], [ 272064.31431744369911, 7042526.537990469485521 ], [ 272076.945222871843725, 7042544.289533233270049 ], [ 272157.162941773945931, 7042606.444984303787351 ] ] ] } },
{ "type": "Feature", "properties": { "gruppe": "Ladehammeren", "popup_kort": "Ladehammeren", "popup_lang": null, "type": "strandrydd_2026", "farge": "#0000EE", "linje_farge": "#EEEEEE" }, "geometry": { "type": "Polygon", "coordinates": [ [ [ 271928.990267985325772, 7042837.781177124939859 ], [ 271862.959010133519769, 7042735.619608373381197 ], [ 271803.157116229995154, 7042777.979283221997321 ], [ 271861.090134281956125, 7042856.887493248097599 ], [ 271968.610662704391871, 7043100.088688489049673 ], [ 271762.102981131174602, 7043198.222504112869501 ], [ 271733.94284273480298, 7043256.249455959536135 ], [ 271746.72661630687071, 7043261.438232842832804 ], [ 271754.578682297316846, 7043311.03022857196629 ], [ 271745.486816413642373, 7043329.627226970158517 ], [ 271742.180683365091681, 7043335.412959805689752 ], [ 271759.537881870230194, 7043341.611959272064269 ], [ 271755.818482190545183, 7043350.70382515527308 ], [ 271731.849017588188872, 7043355.663024728186429 ], [ 271719.4510186559055, 7043372.606956602074206 ], [ 271724.410218228818849, 7043403.188687302172184 ], [ 271752.986691488767974, 7043449.510929622687399 ], [ 271786.872321646253113, 7043430.365761704742908 ], [ 271778.22740386473015, 7043357.881451074965298 ], [ 271820.786999096919317, 7043310.666900114156306 ], [ 271840.736809362017084, 7043288.057115147821605 ], [ 271859.356632276147138, 7043277.417216339148581 ], [ 271950.460765820054803, 7043227.542690676636994 ], [ 272067.499652708647773, 7043183.653108093887568 ], [ 272054.1997791986214, 7043113.828772165812552 ], [ 272044.224874066072516, 7043026.049606999382377 ], [ 272026.892755978682544, 7042980.912760077044368 ], [ 271928.990267985325772, 7042837.781177124939859 ] ] ] } },
{ "type": "Feature", "properties": { "gruppe": "Nyhavna", "popup_kort": "Nyhavna", "popup_lang": null, "type": "strandrydd_2026", "farge": "#DDDD00", "linje_farge": "#EEEEEE" }, "geometry": { "type": "Polygon", "coordinates": [ [ [ 271685.864245974575169, 7042554.041289783082902 ], [ 271525.531159157224465, 7042499.827943881042302 ], [ 271480.856525032722857, 7042558.7672796016559 ], [ 271412.69114946317859, 7042567.114060283638537 ], [ 271286.098309119814076, 7042532.335807441733778 ], [ 271184.545810822339263, 7042574.06971085164696 ], [ 271185.936940936022438, 7042592.849967386573553 ], [ 271501.723476737679448, 7043206.338347512297332 ], [ 271567.106592079857364, 7043325.975537287071347 ], [ 271618.578406285436358, 7043284.241633877158165 ], [ 271604.667105148779228, 7043174.342354898341 ], [ 271617.187276171753183, 7043154.8665333064273 ], [ 271474.152611850062385, 7042894.155504189431667 ], [ 271496.778300802398007, 7042879.35524149145931 ], [ 271499.670306157204323, 7042886.840431821532547 ], [ 271537.786285297712311, 7042959.063195642083883 ], [ 271565.264791658730246, 7042941.573971435427666 ], [ 271530.12349978054408, 7042881.084862464107573 ], [ 271564.112618154555093, 7042864.954433405771852 ], [ 271589.460435247048736, 7042928.900062888860703 ], [ 271659.743019003421068, 7042893.758771010674536 ], [ 271749.612552331353072, 7042869.563127422705293 ], [ 271721.384301478334237, 7042834.997922296635807 ], [ 271782.427509787259623, 7042792.224544099532068 ], [ 271803.157116229995154, 7042777.979283221997321 ], [ 271862.959010133519769, 7042735.619608373381197 ], [ 271685.864245974575169, 7042554.041289783082902 ] ] ] } },
{ "type": "Feature", "properties": { "gruppe": "Solsiden", "popup_kort": "Solsiden", "popup_lang": null, "type": "strandrydd_2026", "farge": "#DD3333", "linje_farge": "#EEEEEE" }, "geometry": { "type": "Polygon", "coordinates": [ [ [ 270927.17079037905205, 7042008.066254653967917 ], [ 271038.424842979875393, 7042261.725494584068656 ], [ 271109.627436644397676, 7042214.55377628095448 ], [ 271132.768279585347045, 7042178.952479449100792 ], [ 271138.220785544370301, 7042192.372165051288903 ], [ 271154.89846058288822, 7042204.284790078178048 ], [ 271171.576135621406138, 7042217.218497251160443 ], [ 271051.428803201182745, 7042298.905068868771195 ], [ 271051.769163916236721, 7042318.645990342833102 ], [ 271073.211888965743128, 7042375.486229759640992 ], [ 271091.931728294701315, 7042375.486229759640992 ], [ 271103.844353322172537, 7042408.160858406685293 ], [ 271171.235774906293955, 7042330.558615369722247 ], [ 271345.160100307781249, 7042335.323665381409228 ], [ 271346.181182453001384, 7042363.573604731820524 ], [ 271300.913207348494325, 7042363.573604731820524 ], [ 271286.618057315470651, 7042376.507311904802918 ], [ 271160.684592739096843, 7042380.591640485450625 ], [ 271108.949764048273209, 7042454.109554940834641 ], [ 271128.009964092227165, 7042483.210396079346538 ], [ 271269.259660846844781, 7042473.680296057835221 ], [ 271401.319618294539396, 7042461.086949599906802 ], [ 271446.247232683934271, 7042445.430356706492603 ], [ 271474.837532749923412, 7042414.797892350703478 ], [ 271477.900779185583815, 7042356.936570787802339 ], [ 271467.00923630327452, 7042312.689677828922868 ], [ 271404.553045087668579, 7042257.721422344446182 ], [ 271293.084910901845433, 7042164.46258641500026 ], [ 271084.273612205579411, 7042021.511086084879935 ], [ 271024.37012635305291, 7041973.520225260406733 ], [ 270997.14126914733788, 7041965.351568098179996 ], [ 270964.466640500468202, 7041982.709964566864073 ], [ 270964.466640500468202, 7041982.709964566864073 ], [ 270927.17079037905205, 7042008.066254653967917 ] ] ] } }
]
}
