{
"type": "FeatureCollection",
"name": "punkt",
"crs": { "type": "name", "properties": { "name": "urn:ogc:def:crs:EPSG::25833" } },
"features": [
{ "type": "Feature", "properties": { "popup_kort": "Start", "ikon_url": "https://lamokart.blob.core.windows.net/ikoner/start-banner.svg", "popup_lang": "Vi starter i strandveiparken", "type": "strandrydd_2026" }, "geometry": { "type": "Point", "coordinates": [ 271529.630799360980745, 7042452.791864837519825 ] } },
{ "type": "Feature", "properties": { "popup_kort": "Ekorn", "ikon_url": "https://lamokart.blob.core.windows.net/ikoner/ekorn.svg", "popup_lang": "Ekornet har gjemt seg på Havet", "type": "strandrydd_2026" }, "geometry": { "type": "Point", "coordinates": [ 271881.502495526801795, 7042859.717974505387247 ] } },
{ "type": "Feature", "properties": { "popup_kort": "Hane", "ikon_url": "https://lamokart.blob.core.windows.net/ikoner/maase.svg", "popup_lang": "På Nærom samler de inn det som folk ikke trenger lenger slik at andre kan bruke det.", "type": "strandrydd_2026" }, "geometry": { "type": "Point", "coordinates": [ 271859.488316352129914, 7042775.771998571231961 ] } },
{ "type": "Feature", "properties": { "popup_kort": "Lama", "ikon_url": "https://lamokart.blob.core.windows.net/ikoner/lama.svg", "popup_lang": "På ReMida driver de med kreativ gjenbruk!", "type": "strandrydd_2026" }, "geometry": { "type": "Point", "coordinates": [ 271817.196907144389115, 7042637.131890678778291 ] } },
{ "type": "Feature", "properties": { "popup_kort": "Mål", "ikon_url": "https://lamokart.blob.core.windows.net/ikoner/panda.svg", "popup_lang": "Pandaen står og venter ved mål", "type": "strandrydd_2026" }, "geometry": { "type": "Point", "coordinates": [ 271563.742569171707146, 7042430.304018249735236 ] } }
]
}
